[{"OBJECT_NAME":"STARLINK-30778","OBJECT_ID":"2023-167H","EPOCH":"2026-02-10T01:50:20.735232","MEAN_MOTION":15.02513856,"ECCENTRICITY":4.54e-5,"INCLINATION":43.0003,"RA_OF_ASC_NODE":295.7981,"ARG_OF_PERICENTER":323.2949,"MEAN_ANOMALY":36.7862,"EPHEMERIS_TYPE":0,"CLASSIFICATION_TYPE":"U","NORAD_CAT_ID":58182,"ELEMENT_SET_NO":999,"REV_AT_EPOCH":12680,"BSTAR":-0.00010149,"MEAN_MOTION_DOT":-1.573e-5,"MEAN_MOTION_DDOT":0},{"OBJECT_NAME":"STARLINK-30809","OBJECT_ID":"2023-167J","EPOCH":"2026-02-10T02:47:49.887168","MEAN_MOTION":15.02552938,"ECCENTRICITY":7.14e-5,"INCLINATION":42.9932,"RA_OF_ASC_NODE":296.1063,"ARG_OF_PERICENTER":314.4764,"MEAN_ANOMALY":45.6019,"EPHEMERIS_TYPE":0,"CLASSIFICATION_TYPE":"U","NORAD_CAT_ID":58183,"ELEMENT_SET_NO":999,"REV_AT_EPOCH":12680,"BSTAR":-5.5984e-5,"MEAN_MOTION_DOT":-9.6e-6,"MEAN_MOTION_DDOT":0},{"OBJECT_NAME":"STARLINK-30801","OBJECT_ID":"2023-167K","EPOCH":"2026-02-10T01:07:18.234912","MEAN_MOTION":15.02535801,"ECCENTRICITY":8.84e-5,"INCLINATION":43.0016,"RA_OF_ASC_NODE":296.4328,"ARG_OF_PERICENTER":281.9628,"MEAN_ANOMALY":78.1115,"EPHEMERIS_TYPE":0,"CLASSIFICATION_TYPE":"U","NORAD_CAT_ID":58184,"ELEMENT_SET_NO":999,"REV_AT_EPOCH":12679,"BSTAR":2.0934e-5,"MEAN_MOTION_DOT":7.9e-7,"MEAN_MOTION_DDOT":0},{"OBJECT_NAME":"STARLINK-30793","OBJECT_ID":"2023-167L","EPOCH":"2026-02-10T01:45:30.001824","MEAN_MOTION":15.02535755,"ECCENTRICITY":0.0001187,"INCLINATION":43.0026,"RA_OF_ASC_NODE":295.7704,"ARG_OF_PERICENTER":263.2091,"MEAN_ANOMALY":96.8616,"EPHEMERIS_TYPE":0,"CLASSIFICATION_TYPE":"U","NORAD_CAT_ID":58185,"ELEMENT_SET_NO":999,"REV_AT_EPOCH":12680,"BSTAR":7.2276e-5,"MEAN_MOTION_DOT":7.73e-6,"MEAN_MOTION_DDOT":0},{"OBJECT_NAME":"STARLINK-30755","OBJECT_ID":"2023-167M","EPOCH":"2026-02-10T02:30:15.288768","MEAN_MOTION":15.02537269,"ECCENTRICITY":8.67e-5,"INCLINATION":43.0028,"RA_OF_ASC_NODE":296.005,"ARG_OF_PERICENTER":275.1677,"MEAN_ANOMALY":84.9066,"EPHEMERIS_TYPE":0,"CLASSIFICATION_TYPE":"U","NORAD_CAT_ID":58186,"ELEMENT_SET_NO":999,"REV_AT_EPOCH":12680,"BSTAR":5.6595e-5,"MEAN_MOTION_DOT":5.61e-6,"MEAN_MOTION_DDOT":0},{"OBJECT_NAME":"STARLINK-30760","OBJECT_ID":"2023-167N","EPOCH":"2026-02-10T03:16:26.043456","MEAN_MOTION":15.02535943,"ECCENTRICITY":0.0001161,"INCLINATION":43.0023,"RA_OF_ASC_NODE":295.3816,"ARG_OF_PERICENTER":255.6148,"MEAN_ANOMALY":104.4566,"EPHEMERIS_TYPE":0,"CLASSIFICATION_TYPE":"U","NORAD_CAT_ID":58187,"ELEMENT_SET_NO":999,"REV_AT_EPOCH":12681,"BSTAR":4.1892e-5,"MEAN_MOTION_DOT":3.62e-6,"MEAN_MOTION_DDOT":0},{"OBJECT_NAME":"STARLINK-30826","OBJECT_ID":"2023-167P","EPOCH":"2026-02-10T02:28:39.149760","MEAN_MOTION":15.02546467,"ECCENTRICITY":0.0001112,"INCLINATION":43.0056,"RA_OF_ASC_NODE":295.9913,"ARG_OF_PERICENTER":281.2618,"MEAN_ANOMALY":78.8099,"EPHEMERIS_TYPE":0,"CLASSIFICATION_TYPE":"U","NORAD_CAT_ID":58188,"ELEMENT_SET_NO":999,"REV_AT_EPOCH":12680,"BSTAR":0.00014738,"MEAN_MOTION_DOT":1.788e-5,"MEAN_MOTION_DDOT":0},{"OBJECT_NAME":"STARLINK-30796","OBJECT_ID":"2023-167Q","EPOCH":"2026-02-10T02:33:26.994816","MEAN_MOTION":15.02536577,"ECCENTRICITY":0.0001009,"INCLINATION":43.0025,"RA_OF_ASC_NODE":296.0197,"ARG_OF_PERICENTER":266.6029,"MEAN_ANOMALY":93.4697,"EPHEMERIS_TYPE":0,"CLASSIFICATION_TYPE":"U","NORAD_CAT_ID":58189,"ELEMENT_SET_NO":999,"REV_AT_EPOCH":12680,"BSTAR":6.9391e-5,"MEAN_MOTION_DOT":7.34e-6,"MEAN_MOTION_DDOT":0},{"OBJECT_NAME":"STARLINK-30820","OBJECT_ID":"2023-167R","EPOCH":"2026-02-10T02:38:15.753984","MEAN_MOTION":15.02537692,"ECCENTRICITY":0.0001225,"INCLINATION":43.0014,"RA_OF_ASC_NODE":296.04,"ARG_OF_PERICENTER":258.99,"MEAN_ANOMALY":101.0805,"EPHEMERIS_TYPE":0,"CLASSIFICATION_TYPE":"U","NORAD_CAT_ID":58190,"ELEMENT_SET_NO":999,"REV_AT_EPOCH":12680,"BSTAR":0.000177,"MEAN_MOTION_DOT":2.188e-5,"MEAN_MOTION_DDOT":0},{"OBJECT_NAME":"STARLINK-30785","OBJECT_ID":"2023-167S","EPOCH":"2026-02-10T02:19:02.785728","MEAN_MOTION":15.02547238,"ECCENTRICITY":0.0001558,"INCLINATION":43.0055,"RA_OF_ASC_NODE":295.9407,"ARG_OF_PERICENTER":250.8786,"MEAN_ANOMALY":109.1888,"EPHEMERIS_TYPE":0,"CLASSIFICATION_TYPE":"U","NORAD_CAT_ID":58191,"ELEMENT_SET_NO":999,"REV_AT_EPOCH":12680,"BSTAR":0.00014245,"MEAN_MOTION_DOT":1.722e-5,"MEAN_MOTION_DDOT":0},{"OBJECT_NAME":"STARLINK-30807","OBJECT_ID":"2023-167T","EPOCH":"2026-02-10T02:23:51.245088","MEAN_MOTION":15.02545624,"ECCENTRICITY":0.00015,"INCLINATION":43.0028,"RA_OF_ASC_NODE":295.9672,"ARG_OF_PERICENTER":257.3101,"MEAN_ANOMALY":102.7574,"EPHEMERIS_TYPE":0,"CLASSIFICATION_TYPE":"U","NORAD_CAT_ID":58192,"ELEMENT_SET_NO":999,"REV_AT_EPOCH":12680,"BSTAR":0.00067829,"MEAN_MOTION_DOT":8.973e-5,"MEAN_MOTION_DDOT":0},{"OBJECT_NAME":"STARLINK-30822","OBJECT_ID":"2023-167U","EPOCH":"2026-02-10T02:14:16.354176","MEAN_MOTION":15.02536194,"ECCENTRICITY":9.37e-5,"INCLINATION":43.0019,"RA_OF_ASC_NODE":295.9194,"ARG_OF_PERICENTER":278.6056,"MEAN_ANOMALY":81.468,"EPHEMERIS_TYPE":0,"CLASSIFICATION_TYPE":"U","NORAD_CAT_ID":58193,"ELEMENT_SET_NO":999,"REV_AT_EPOCH":12680,"BSTAR":2.896e-5,"MEAN_MOTION_DOT":1.88e-6,"MEAN_MOTION_DDOT":0},{"OBJECT_NAME":"STARLINK-30830","OBJECT_ID":"2023-167V","EPOCH":"2026-02-10T02:07:52.261248","MEAN_MOTION":15.02543415,"ECCENTRICITY":9.12e-5,"INCLINATION":43.0061,"RA_OF_ASC_NODE":295.8639,"ARG_OF_PERICENTER":250.267,"MEAN_ANOMALY":109.8074,"EPHEMERIS_TYPE":0,"CLASSIFICATION_TYPE":"U","NORAD_CAT_ID":58194,"ELEMENT_SET_NO":999,"REV_AT_EPOCH":12680,"BSTAR":1.4528e-5,"MEAN_MOTION_DOT":-7.0e-8,"MEAN_MOTION_DDOT":0},{"OBJECT_NAME":"STARLINK-30827","OBJECT_ID":"2023-167W","EPOCH":"2026-02-10T02:04:41.600640","MEAN_MOTION":15.02573925,"ECCENTRICITY":0.0001049,"INCLINATION":43.0108,"RA_OF_ASC_NODE":295.8597,"ARG_OF_PERICENTER":252.2229,"MEAN_ANOMALY":107.8499,"EPHEMERIS_TYPE":0,"CLASSIFICATION_TYPE":"U","NORAD_CAT_ID":58195,"ELEMENT_SET_NO":999,"REV_AT_EPOCH":12680,"BSTAR":-0.00076418,"MEAN_MOTION_DOT":-0.00010521,"MEAN_MOTION_DDOT":0},{"OBJECT_NAME":"STARLINK-30798","OBJECT_ID":"2023-167X","EPOCH":"2026-02-10T01:31:15.648384","MEAN_MOTION":15.02550636,"ECCENTRICITY":9.37e-5,"INCLINATION":42.9957,"RA_OF_ASC_NODE":296.5591,"ARG_OF_PERICENTER":281.4534,"MEAN_ANOMALY":78.6203,"EPHEMERIS_TYPE":0,"CLASSIFICATION_TYPE":"U","NORAD_CAT_ID":58196,"ELEMENT_SET_NO":999,"REV_AT_EPOCH":12679,"BSTAR":0.00023711,"MEAN_MOTION_DOT":3.002e-5,"MEAN_MOTION_DDOT":0},{"OBJECT_NAME":"STARLINK-30762","OBJECT_ID":"2023-167Y","EPOCH":"2026-02-10T02:09:28.476288","MEAN_MOTION":15.02536454,"ECCENTRICITY":0.0001238,"INCLINATION":43.003,"RA_OF_ASC_NODE":295.8912,"ARG_OF_PERICENTER":268.5848,"MEAN_ANOMALY":91.4853,"EPHEMERIS_TYPE":0,"CLASSIFICATION_TYPE":"U","NORAD_CAT_ID":58197,"ELEMENT_SET_NO":999,"REV_AT_EPOCH":12680,"BSTAR":6.5676e-5,"MEAN_MOTION_DOT":6.84e-6,"MEAN_MOTION_DDOT":0},{"OBJECT_NAME":"STARLINK-30800","OBJECT_ID":"2023-170A","EPOCH":"2026-02-09T06:49:09.661440","MEAN_MOTION":15.02531939,"ECCENTRICITY":0.0001551,"INCLINATION":43.0055,"RA_OF_ASC_NODE":350.5153,"ARG_OF_PERICENTER":263.9402,"MEAN_ANOMALY":96.1263,"EPHEMERIS_TYPE":0,"CLASSIFICATION_TYPE":"U","NORAD_CAT_ID":58206,"ELEMENT_SET_NO":999,"REV_AT_EPOCH":12600,"BSTAR":2.8206e-6,"MEAN_MOTION_DOT":-1.66e-6,"MEAN_MOTION_DDOT":0},{"OBJECT_NAME":"STARLINK-30845","OBJECT_ID":"2023-170B","EPOCH":"2026-02-09T04:20:41.237376","MEAN_MOTION":15.025351,"ECCENTRICITY":0.0001246,"INCLINATION":43.0046,"RA_OF_ASC_NODE":350.616,"ARG_OF_PERICENTER":264.3776,"MEAN_ANOMALY":95.6924,"EPHEMERIS_TYPE":0,"CLASSIFICATION_TYPE":"U","NORAD_CAT_ID":58207,"ELEMENT_SET_NO":999,"REV_AT_EPOCH":12599,"BSTAR":1.4165e-5,"MEAN_MOTION_DOT":-1.2e-7,"MEAN_MOTION_DDOT":0},{"OBJECT_NAME":"STARLINK-30841","OBJECT_ID":"2023-170C","EPOCH":"2026-02-09T23:00:48.070080","MEAN_MOTION":15.0254314,"ECCENTRICITY":0.000114,"INCLINATION":43.0048,"RA_OF_ASC_NODE":346.9666,"ARG_OF_PERICENTER":263.3359,"MEAN_ANOMALY":96.7354,"EPHEMERIS_TYPE":0,"CLASSIFICATION_TYPE":"U","NORAD_CAT_ID":58208,"ELEMENT_SET_NO":999,"REV_AT_EPOCH":12610,"BSTAR":8.0209e-5,"MEAN_MOTION_DOT":8.8e-6,"MEAN_MOTION_DDOT":0},{"OBJECT_NAME":"STARLINK-30839","OBJECT_ID":"2023-170D","EPOCH":"2026-02-09T06:34:46.274880","MEAN_MOTION":15.02534735,"ECCENTRICITY":7.41e-5,"INCLINATION":43.0039,"RA_OF_ASC_NODE":350.4434,"ARG_OF_PERICENTER":272.7808,"MEAN_ANOMALY":87.2949,"EPHEMERIS_TYPE":0,"CLASSIFICATION_TYPE":"U","NORAD_CAT_ID":58209,"ELEMENT_SET_NO":999,"REV_AT_EPOCH":12600,"BSTAR":-2.8364e-5,"MEAN_MOTION_DOT":-5.87e-6,"MEAN_MOTION_DDOT":0},{"OBJECT_NAME":"STARLINK-30846","OBJECT_ID":"2023-170E","EPOCH":"2026-02-09T06:39:33.911712","MEAN_MOTION":15.02536688,"ECCENTRICITY":0.0001676,"INCLINATION":42.9999,"RA_OF_ASC_NODE":350.4704,"ARG_OF_PERICENTER":246.9351,"MEAN_ANOMALY":113.1315,"EPHEMERIS_TYPE":0,"CLASSIFICATION_TYPE":"U","NORAD_CAT_ID":58210,"ELEMENT_SET_NO":999,"REV_AT_EPOCH":12600,"BSTAR":2.4698e-6,"MEAN_MOTION_DOT":-1.7e-6,"MEAN_MOTION_DDOT":0},{"OBJECT_NAME":"STARLINK-30838","OBJECT_ID":"2023-170F","EPOCH":"2026-02-09T06:25:09.426144","MEAN_MOTION":15.02551161,"ECCENTRICITY":0.0001153,"INCLINATION":43.0045,"RA_OF_ASC_NODE":350.3942,"ARG_OF_PERICENTER":261.8738,"MEAN_ANOMALY":98.1973,"EPHEMERIS_TYPE":0,"CLASSIFICATION_TYPE":"U","NORAD_CAT_ID":58211,"ELEMENT_SET_NO":999,"REV_AT_EPOCH":12600,"BSTAR":0.00015879,"MEAN_MOTION_DOT":1.943e-5,"MEAN_MOTION_DDOT":0},{"OBJECT_NAME":"STARLINK-30837","OBJECT_ID":"2023-170G","EPOCH":"2026-02-09T05:08:38.982048","MEAN_MOTION":15.02543636,"ECCENTRICITY":0.0002106,"INCLINATION":42.9974,"RA_OF_ASC_NODE":350.8452,"ARG_OF_PERICENTER":30.2191,"MEAN_ANOMALY":329.8773,"EPHEMERIS_TYPE":0,"CLASSIFICATION_TYPE":"U","NORAD_CAT_ID":58212,"ELEMENT_SET_NO":999,"REV_AT_EPOCH":12599,"BSTAR":6.8707e-5,"MEAN_MOTION_DOT":7.25e-6,"MEAN_MOTION_DDOT":0}]
